OBJECT_NAME,OBJECT_ID,EPOCH,MEAN_MOTION,ECCENTRICITY,INCLINATION,RA_OF_ASC_NODE,ARG_OF_PERICENTER,MEAN_ANOMALY,EPHEMERIS_TYPE,CLASSIFICATION_TYPE,NORAD_CAT_ID,ELEMENT_SET_NO,REV_AT_EPOCH,BSTAR,MEAN_MOTION_DOT,MEAN_MOTION_DDOT
STARLINK-31622,2024-068B,2024-10-08T18:29:39.071904,15.40674652,0.0001914,43.0036,87.9131,268.3226,91.7411,0,U,59456,999,2930,2.5644E-06,-1.97E-06,0
STARLINK-31319,2024-068C,2024-10-08T19:11:35.602368,15.40678625,0.0001418,43.0037,88.1380,266.2721,93.7974,0,U,59457,999,2930,1.2847E-05,2.33E-06,0
STARLINK-31625,2024-068D,2024-10-09T11:23:38.126112,15.40688203,0.0001493,43.0063,83.7376,273.1377,86.9309,0,U,59458,999,2941,-5.6474E-06,-5.39E-06,0
STARLINK-31631,2024-068E,2024-10-08T17:54:21.523680,15.40683165,0.0001902,43.0040,88.5971,262.8338,97.2302,0,U,59459,999,2929,4.9858E-05,1.778E-05,0
STARLINK-31620,2024-068F,2024-10-09T10:35:27.595104,15.40676265,0.000149,43.0038,84.3503,255.8104,104.2587,0,U,59460,999,2940,-2.4495E-05,-1.326E-05,0
STARLINK-31511,2024-068H,2024-10-09T03:59:26.228256,15.40707022,0.0001804,43.0059,85.7259,275.6913,84.3737,0,U,59462,999,2936,-3.4543E-05,-1.747E-05,0
STARLINK-31364,2024-068J,2024-10-09T10:51:34.391232,15.40684246,0.000333,43.0048,84.4377,282.2028,77.8455,0,U,59463,999,2940,4.2597E-05,1.474E-05,0
STARLINK-31597,2024-068K,2024-10-09T11:17:10.675680,15.40689026,0.0000212,43.0034,83.7063,254.3075,105.7758,0,U,59464,999,2936,5.659E-05,2.061E-05,0
STARLINK-31621,2024-068L,2024-10-09T11:26:52.043136,15.40675935,0.0001982,43.0040,83.7644,272.3035,87.7594,0,U,59465,999,2941,3.9075E-05,1.328E-05,0
STARLINK-31462,2024-068M,2024-10-09T08:04:00.747264,15.40695615,0.0001855,43.0029,84.3999,286.5598,73.5055,0,U,59466,999,2939,-1.0663E-04,-4.755E-05,0
STARLINK-31592,2024-068N,2024-10-08T15:29:23.016192,15.40681580,0.0002342,43.0015,88.6948,261.1070,98.9521,0,U,59467,999,2928,-1.5761E-04,-6.878E-05,0
STARLINK-31267,2024-068P,2024-10-09T10:32:13.200288,15.40688161,0.0001068,43.0021,84.3342,317.2990,42.7784,0,U,59468,999,2940,-1.3423E-05,-8.64E-06,0
STARLINK-31381,2024-068Q,2024-10-09T10:28:59.985696,15.40675946,0.0001152,43.0028,84.3132,229.2960,130.7797,0,U,59469,999,2940,-7.7856E-06,-6.28E-06,0
STARLINK-31546,2024-068R,2024-10-09T10:48:20.953728,15.40677015,0.0002036,43.0042,84.4158,253.3958,106.6675,0,U,59470,999,2940,-1.0667E-05,-7.49E-06,0
STARLINK-31575,2024-068S,2024-10-09T04:25:14.416896,15.40699688,0.0001928,43.0043,85.8600,269.9917,90.0719,0,U,59471,999,2936,9.9522E-05,3.856E-05,0
STARLINK-31375,2024-068T,2024-10-09T14:00:01.000224,15.78319775,0.0022935,42.9938,77.5775,320.3713,29.4758,0,U,59472,999,2948,1.8393E-03,3.45269E-03,0
STARLINK-31610,2024-068U,2024-10-09T11:20:24.765504,15.40676975,0.0002044,43.0036,83.7155,267.3318,92.7304,0,U,59473,999,2941,-5.3975E-05,-2.556E-05,0
STARLINK-31581,2024-068V,2024-10-09T10:25:44.853888,15.40695022,0.0001754,43.0029,84.3023,359.2461,0.8393,0,U,59474,999,2940,1.3256E-04,5.236E-05,0
STARLINK-31566,2024-068W,2024-10-09T11:04:16.784832,15.40669036,0.0001666,43.0046,83.6314,286.1991,73.8682,0,U,59475,999,2941,7.4997E-05,2.827E-05,0
STARLINK-31515,2024-068X,2024-10-08T18:07:03.654624,15.40690615,0.0002588,43.0032,87.7893,275.1594,84.8967,0,U,59476,999,2930,1.7926E-05,4.45E-06,0
STARLINK-31531,2024-068Y,2024-10-09T14:00:01.000224,15.41701705,0.0002687,43.0030,82.6934,291.7368,122.2068,0,U,59477,999,586,5.9633E-04,2.5536E-04,0
DUMMY SAT 3,2024-069A,2024-10-08T14:48:21.271968,0.98607356,0.0050346,0.4992,87.0800,115.8445,156.8837,0,U,59479,999,173,0,-1.41E-06,0
WSF-M,2024-070A,2024-10-09T10:59:14.212896,14.20550289,0.0003867,98.7213,288.7526,306.3584,53.7236,0,U,59481,999,2567,2.4283E-04,4.78E-06,0
STARLINK-31753,2024-071A,2024-10-09T09:18:05.594400,15.40687498,0.0001309,43.0045,43.2705,271.4047,88.6659,0,U,59484,999,2892,-3.414E-05,-1.729E-05,0
STARLINK-31653,2024-071B,2024-10-09T14:00:01.000224,15.48126969,0.0006049,43.0020,40.6893,1.0381,247.5575,0,U,59485,999,2893,4.7709E-03,2.65399E-03,0
STARLINK-31733,2024-071C,2024-10-09T01:08:44.400768,15.40671215,0.0000837,43.0008,45.0137,263.3490,96.7271,0,U,59486,999,2887,-1.8517E-04,-8.022E-05,0
STARLINK-31657,2024-071D,2024-10-09T09:08:25.866816,15.40618483,0.000107,43.0001,43.2145,273.2143,86.8591,0,U,59487,999,2892,-5.6171E-04,-2.363E-04,0
STARLINK-31754,2024-071E,2024-10-09T08:07:08.148864,15.40644239,0.0001244,43.0009,42.8913,241.4230,118.6501,0,U,59488,999,2892,-3.2568E-04,-1.3857E-04,0
STARLINK-31638,2024-071F,2024-10-09T14:33:27.864000,15.40671160,0.0002307,43.0033,41.4643,292.1807,67.8804,0,U,59489,999,2896,-5.5899E-05,-2.636E-05,0
STARLINK-31670,2024-071G,2024-10-09T09:37:26.857920,15.40682754,0.0000935,42.9997,43.3820,262.7085,97.3665,0,U,59490,999,2892,6.8643E-06,-1.7E-07,0
