59456,STARLINK-31622,2024,93.47,-1.0,+,43.0,Active,0,LEO,USA,USA,Unknown,Unknown,Unknown,1 59456U 24068B   24282.77059111 -.00000197  00000+0  25644-5 0  9991,2 59456  43.0036  87.9131 0001914 268.3226  91.7411 15.40674652 29307,15.40674652,0.0001914,LEO
59457,STARLINK-31319,2024,93.47,-1.0,+,43.0,Active,0,LEO,USA,USA,Unknown,Unknown,Unknown,1 59457U 24068C   24282.79971762  .00000233  00000+0  12847-4 0  9999,2 59457  43.0037  88.1380 0001418 266.2721  93.7974 15.40678625 29304,15.40678625,0.0001418,LEO
59458,STARLINK-31625,2024,93.46,-1.0,+,43.01,Active,0,LEO,USA,USA,Unknown,Unknown,Unknown,1 59458U 24068D   24283.47474683 -.00000539  00000+0 -56474-5 0  9992,2 59458  43.0063  83.7376 0001493 273.1377  86.9309 15.40688203 29418,15.40688203,0.0001493,LEO
59459,STARLINK-31631,2024,93.47,-1.0,+,43.0,Active,0,LEO,USA,USA,Unknown,Unknown,Unknown,1 59459U 24068E   24282.74608245  .00001778  00000+0  49858-4 0  9996,2 59459  43.0040  88.5971 0001902 262.8338  97.2302 15.40683165 29291,15.40683165,0.0001902,LEO
59460,STARLINK-31620,2024,93.47,-1.0,+,43.0,Active,0,LEO,USA,USA,Unknown,Unknown,Unknown,1 59460U 24068F   24283.44129161 -.00001326  00000+0 -24495-4 0  9992,2 59460  43.0038  84.3503 0001490 255.8104 104.2587 15.40676265 29400,15.40676265,0.000149,LEO
59462,STARLINK-31511,2024,93.46,-1.0,+,43.01,Active,0,LEO,USA,USA,Unknown,Unknown,Unknown,1 59462U 24068H   24283.16627579 -.00001747  00000+0 -34543-4 0  9991,2 59462  43.0059  85.7259 0001804 275.6913  84.3737 15.40707022 29361,15.40707022,0.0001804,LEO
59463,STARLINK-31364,2024,93.46,-1.0,+,43.0,Active,0,LEO,USA,USA,Unknown,Unknown,Unknown,1 59463U 24068J   24283.45248138  .00001474  00000+0  42597-4 0  9997,2 59463  43.0048  84.4377 0003330 282.2028  77.8455 15.40684246 29405,15.40684246,0.000333,LEO
59464,STARLINK-31597,2024,93.46,-1.0,+,43.0,Active,0,LEO,USA,USA,Unknown,Unknown,Unknown,1 59464U 24068K   24283.47026245  .00002061  00000+0  56590-4 0  9994,2 59464  43.0034  83.7063 0000212 254.3075 105.7758 15.40689026 29366,15.40689026,2.12e-05,LEO
59465,STARLINK-31621,2024,93.47,-1.0,+,43.0,Active,0,LEO,USA,USA,Unknown,Unknown,Unknown,1 59465U 24068L   24283.47699124  .00001328  00000+0  39075-4 0  9991,2 59465  43.0040  83.7644 0001982 272.3035  87.7594 15.40675935 29417,15.40675935,0.0001982,LEO
59466,STARLINK-31462,2024,93.46,-1.0,+,43.0,Active,0,LEO,USA,USA,Unknown,Unknown,Unknown,1 59466U 24068M   24283.33611976 -.00004755  00000+0 -10663-3 0  9996,2 59466  43.0029  84.3999 0001855 286.5598  73.5055 15.40695615 29394,15.40695615,0.0001855,LEO
59467,STARLINK-31592,2024,93.47,-1.0,+,43.0,Active,0,LEO,USA,USA,Unknown,Unknown,Unknown,1 59467U 24068N   24282.64540528 -.00006878  00000+0 -15761-3 0  9996,2 59467  43.0015  88.6948 0002342 261.1070  98.9521 15.40681580 29280,15.4068158,0.0002342,LEO
59468,STARLINK-31267,2024,93.46,-1.0,+,43.0,Active,0,LEO,USA,USA,Unknown,Unknown,Unknown,1 59468U 24068P   24283.43904167 -.00000864  00000+0 -13423-4 0  9991,2 59468  43.0021  84.3342 0001068 317.2990  42.7784 15.40688161 29401,15.40688161,0.0001068,LEO
59469,STARLINK-31381,2024,93.47,-1.0,+,43.0,Active,0,LEO,USA,USA,Unknown,Unknown,Unknown,1 59469U 24068Q   24283.43680539 -.00000628  00000+0 -77856-5 0  9995,2 59469  43.0028  84.3132 0001152 229.2960 130.7797 15.40675946 29408,15.40675946,0.0001152,LEO
59470,STARLINK-31546,2024,93.47,-1.0,+,43.0,Active,0,LEO,USA,USA,Unknown,Unknown,Unknown,1 59470U 24068R   24283.45024252 -.00000749  00000+0 -10667-4 0  9993,2 59470  43.0042  84.4158 0002036 253.3958 106.6675 15.40677015 29408,15.40677015,0.0002036,LEO
59471,STARLINK-31575,2024,93.46,-1.0,+,43.0,Active,0,LEO,USA,USA,Unknown,Unknown,Unknown,1 59471U 24068S   24283.18419464  .00003856  00000+0  99522-4 0  9994,2 59471  43.0043  85.8600 0001928 269.9917  90.0719 15.40699688 29364,15.40699688,0.0001928,LEO
59472,STARLINK-31375,2024,91.27,-1.0,P,42.99,Active,0,LEO,USA,USA,Unknown,Unknown,Unknown,1 59472U 24068T   24283.58334491  .00345269  00000+0  18393-2 0  9997,2 59472  42.9938  77.5775 0022935 320.3713  29.4758 15.78319775 29483,15.78319775,0.0022935,LEO
59473,STARLINK-31610,2024,93.47,-1.0,+,43.0,Active,0,LEO,USA,USA,Unknown,Unknown,Unknown,1 59473U 24068U   24283.47250886 -.00002556  00000+0 -53975-4 0  9999,2 59473  43.0036  83.7155 0002044 267.3318  92.7304 15.40676975 29416,15.40676975,0.0002044,LEO
59474,STARLINK-31581,2024,93.46,-1.0,+,43.0,Active,0,LEO,USA,USA,Unknown,Unknown,Unknown,1 59474U 24068V   24283.43454692  .00005236  00000+0  13256-3 0  9990,2 59474  43.0029  84.3023 0001754 359.2461   0.8393 15.40695022 29408,15.40695022,0.0001754,LEO
59475,STARLINK-31566,2024,93.47,-1.0,+,43.0,Active,0,LEO,USA,USA,Unknown,Unknown,Unknown,1 59475U 24068W   24283.46130538  .00002827  00000+0  74997-4 0  9997,2 59475  43.0046  83.6314 0001666 286.1991  73.8682 15.40669036 29419,15.40669036,0.0001666,LEO
59476,STARLINK-31515,2024,93.46,-1.0,+,43.0,Active,0,LEO,USA,USA,Unknown,Unknown,Unknown,1 59476U 24068X   24282.75490341  .00000445  00000+0  17926-4 0  9993,2 59476  43.0032  87.7893 0002588 275.1594  84.8967 15.40690615 29306,15.40690615,0.0002588,LEO
59477,STARLINK-31531,2024,93.4,-1.0,+,43.0,Active,0,LEO,USA,USA,Unknown,Unknown,Unknown,1 59477U 24068Y   24283.58334491  .00025536  00000+0  59633-3 0  9997,2 59477  43.0030  82.6934 0002687 291.7368 122.2068 15.41701705  5866,15.41701705,0.0002687,LEO
59479,DUMMY SAT 3,2024,1460.34,-1.0,+,0.5,Active,0,GSO,Russia,Russia/USSR,Unknown,Unknown,Unknown,1 59479U 24069A   24282.61691287 -.00000141  00000+0  00000+0 0  9998,2 59479   0.4992  87.0800 0050346 115.8445 156.8837  0.98607356  1732,0.98607356,0.0050346,GSO
59481,WSF-M,2024,101.37,-1.0,+,98.72,Active,0,LEO,USA,USA,Unknown,Unknown,Unknown,1 59481U 24070A   24283.45780339  .00000478  00000+0  24283-3 0  9998,2 59481  98.7213 288.7526 0003867 306.3584  53.7236 14.20550289 25672,14.20550289,0.0003867,LEO
59484,STARLINK-31753,2024,93.46,-1.0,+,43.0,Active,0,LEO,USA,USA,Unknown,Unknown,Unknown,1 59484U 24071A   24283.38756475 -.00001729  00000+0 -34140-4 0  9994,2 59484  43.0045  43.2705 0001309 271.4047  88.6659 15.40687498 28922,15.40687498,0.0001309,LEO
59485,STARLINK-31653,2024,93.02,-1.0,+,43.0,Active,0,LEO,USA,USA,Unknown,Unknown,Unknown,1 59485U 24071B   24283.58334491  .00265399  00000+0  47709-2 0  9993,2 59485  43.0020  40.6893 0006049   1.0381 247.5575 15.48126969 28932,15.48126969,0.0006049,LEO
59486,STARLINK-31733,2024,93.47,-1.0,+,43.0,Active,0,LEO,USA,USA,Unknown,Unknown,Unknown,1 59486U 24071C   24283.04773612 -.00008022  00000+0 -18517-3 0  9993,2 59486  43.0008  45.0137 0000837 263.3490  96.7271 15.40671215 28873,15.40671215,8.37e-05,LEO
59487,STARLINK-31657,2024,93.47,-1.0,+,43.0,Active,0,LEO,USA,USA,Unknown,Unknown,Unknown,1 59487U 24071D   24283.38085494 -.00023630  00000+0 -56171-3 0  9995,2 59487  43.0001  43.2145 0001070 273.2143  86.8591 15.40618483 28920,15.40618483,0.000107,LEO
59488,STARLINK-31754,2024,93.47,-1.0,+,43.0,Active,0,LEO,USA,USA,Unknown,Unknown,Unknown,1 59488U 24071E   24283.33828876 -.00013857  00000+0 -32568-3 0  9994,2 59488  43.0009  42.8913 0001244 241.4230 118.6501 15.40644239 28927,15.40644239,0.0001244,LEO
59489,STARLINK-31638,2024,93.46,-1.0,+,43.01,Active,0,LEO,USA,USA,Unknown,Unknown,Unknown,1 59489U 24071F   24283.60657250 -.00002636  00000+0 -55899-4 0  9997,2 59489  43.0033  41.4643 0002307 292.1807  67.8804 15.40671160 28962,15.4067116,0.0002307,LEO
59490,STARLINK-31670,2024,93.47,-1.0,+,43.0,Active,0,LEO,USA,USA,Unknown,Unknown,Unknown,1 59490U 24071G   24283.40100530 -.00000017  00000+0  68643-5 0  9993,2 59490  42.9997  43.3820 0000935 262.7085  97.3665 15.40682754 28925,15.40682754,9.35e-05,LEO
